CAS-2T & KS-1Q          
1 41847U 16066G   20241.77631307  .00000017  00000-0  12956-4 0  9991
2 41847  98.6479 292.9923 0365850  13.5891 347.4831 14.38086864199815
NAYIF-1 (EO-88)         
1 42017U 17008BX  20241.71740314  .00001262  00000-0  50808-4 0  9992
2 42017  97.3547 308.2124 0007799  72.6401 287.5690 15.26674549196577
MAX VALIER SAT          
1 42778U 17036P   20242.15580033  .00000929  00000-0  42684-4 0  9998
2 42778  97.2989 293.7601 0013715 122.6249 237.6314 15.22730233176799
RADFXSAT (FOX-1B)       
1 43017U 17073E   20241.71354632  .00000225  00000-0  22948-4 0  9991
2 43017  97.7173 151.1545 0256825 174.5861 185.8227 14.78998216149847
FOX-1D (AO-92)          
1 43137U 18004AC  20241.76594782  .00000909  00000-0  40157-4 0  9997
2 43137  97.4411 312.4245 0009875 152.5397 207.6364 15.24241979146067
DIWATA-2B               
1 43678U 18084H   20242.12358584  .00000057  00000-0  11414-4 0  9992
2 43678  97.8918   0.5557 0008790 302.3246  57.7095 14.91647622 99854
ES'HAIL 2               
1 43700U 18090A   20242.11090826  .00000121  00000-0  00000+0 0  9992
2 43700   0.0176 137.4766 0002016  35.0219 230.9827  1.00270380  6685
FOX-1CLIFF (AO-95)      
1 43770U 18099N   20241.72679260  .00000148  00000-0  18742-4 0  9995
2 43770  97.7011 311.8319 0013495 320.1375  39.8853 14.95027188 94719
ITASAT 1                
1 43786U 18099AE  20242.10895768 -.00000230  00000-0 -15610-4 0  9993
2 43786  97.7029 312.6787 0014049 312.0847  47.9178 14.95363245 94798
JY1SAT (JO-97)          
1 43803U 18099AX  20241.71328307 -.00000214  00000-0 -14114-4 0  9999
2 43803  97.6989 312.0921 0014037 313.5776  46.4279 14.95546692 94739
PSAT2 (NO-104)          
1 44354U 19036R   20241.38714503  .00010596  00000-0  15182-3 0  9990
2 44354  28.5297 267.8004 0359128 359.9620   0.0908 15.04800929 64650
BRICSAT2 (NO-103)       
1 44355U 19036S   20241.70904373  .00021577  00000-0  29360-3 0  9997
2 44355  28.5282 252.8119 0333327  24.3467 337.2489 15.11402795 64848
JAISAT-1                
1 44419U 19038F   20241.84968469  .00000735  00000-0  45346-4 0  9997
2 44419  97.5447 202.6263 0019993 239.2112 120.7151 15.12882891 63542
DUCHIFAT-3              
1 44854U 19089C   20242.09629625  .00000249  00000-0  26559-4 0  9997
2 44854  36.9677  29.0329 0009868 293.6157  66.3562 14.99110435 39203
RS-44 & BREEZE-KM R/B   
1 44909U 19096E   20241.75609885  .00000008  00000-0 -18867-4 0  9991
2 44909  82.5219 307.2770 0218259  57.6652 304.5377 12.79707594 31430
ORBITAL FACTORY 2 (OF-2)
1 45113U 19071C   20241.82233407  .00001617  00000-0  60493-4 0  9991
2 45113  51.6454  13.8977 0012520 320.0988  39.9073 15.33577848 32238
HUSKYSAT-1              
1 45119U 19071J   20241.79088523  .00001516  00000-0  57096-4 0  9993
2 45119  51.6453  13.6881 0011785 316.5870  43.4184 15.33777406 32221
